start=new Date('2021-10-14T00:00:00.000Z').valueOf();
sats=[{"EPHEMERIS_TYPE":"0","INCLINATION":"53.0527","SITE":"AFETR","TLE_LINE2":"2 45546  53.0527 124.0811 0001804  73.7870 286.3317 15.06401298 82769","GP_ID":"187099244","RCS_SIZE":"LARGE","CLASSIFICATION_TYPE":"U","COUNTRY_CODE":"US","FILE":"3161149","NORAD_CAT_ID":"45546","TIME_SYSTEM":"UTC","OBJECT_NAME":"STARLINK-1375","REV_AT_EPOCH":"8276","PERIOD":"95.592","PERIAPSIS":"545.960","ECCENTRICITY":"0.00018040","MEAN_ELEMENT_THEORY":"SGP4","ARG_OF_PERICENTER":"73.7870","SEMIMAJOR_AXIS":"6925.345","CENTER_NAME":"EARTH","ELEMENT_SET_NO":"999","OBJECT_ID":"2020-025R","DECAY_DATE":null,"MEAN_MOTION_DDOT":"0.0000000000000","OBJECT_TYPE":"PAYLOAD","RA_OF_ASC_NODE":"124.0811","REF_FRAME":"TEME","APOAPSIS":"548.459","EPOCH":"2021-10-13T22:37:08.591520","MEAN_MOTION_DOT":"-0.00000575","BSTAR":"-0.00001969600000","MEAN_MOTION":"15.06401298","MEAN_ANOMALY":"286.3317","TLE_LINE1":"1 45546U 20025R   21286.94246055 -.00000575  00000-0 -19696-4 0  9991","LAUNCH_DATE":"2020-04-22"},{"ARG_OF_PERICENTER":"81.5592","SEMIMAJOR_AXIS":"6925.347","CENTER_NAME":"EARTH","MEAN_ELEMENT_THEORY":"SGP4","ELEMENT_SET_NO":"999","DECAY_DATE":null,"OBJECT_ID":"2020-025S","APOAPSIS":"548.267","REF_FRAME":"TEME","RA_OF_ASC_NODE":"124.0958","OBJECT_TYPE":"PAYLOAD","MEAN_MOTION_DDOT":"0.0000000000000","BSTAR":"-0.00006955300000","MEAN_MOTION_DOT":"-0.00001317","EPOCH":"2021-10-13T22:31:50.257632","MEAN_MOTION":"15.06400608","LAUNCH_DATE":"2020-04-22","MEAN_ANOMALY":"278.5569","TLE_LINE1":"1 45547U 20025S   21286.93877613 -.00001317  00000-0 -69553-4 0  9993","INCLINATION":"53.0522","EPHEMERIS_TYPE":"0","TLE_LINE2":"2 45547  53.0522 124.0958 0001524  81.5592 278.5569 15.06400608 82771","SITE":"AFETR","GP_ID":"187099996","CLASSIFICATION_TYPE":"U","RCS_SIZE":"LARGE","NORAD_CAT_ID":"45547","FILE":"3161149","COUNTRY_CODE":"US","REV_AT_EPOCH":"8277","OBJECT_NAME":"STARLINK-1377","TIME_SYSTEM":"UTC","PERIAPSIS":"546.156","ECCENTRICITY":"0.00015240","PERIOD":"95.592"},{"LAUNCH_DATE":"2020-04-22","MEAN_ANOMALY":"278.8932","TLE_LINE1":"1 45548U 20025T   21286.89822585 -.00000453  00000-0 -11488-4 0  9991","MEAN_MOTION":"15.06399483","MEAN_MOTION_DOT":"-0.00000453","BSTAR":"-0.00001148800000","EPOCH":"2021-10-13T21:33:26.713440","REF_FRAME":"TEME","APOAPSIS":"548.599","MEAN_MOTION_DDOT":"0.0000000000000","OBJECT_TYPE":"PAYLOAD","RA_OF_ASC_NODE":"124.2807","DECAY_DATE":null,"OBJECT_ID":"2020-025T","ELEMENT_SET_NO":"999","MEAN_ELEMENT_THEORY":"SGP4","SEMIMAJOR_AXIS":"6925.350","CENTER_NAME":"EARTH","ARG_OF_PERICENTER":"81.2283","PERIOD":"95.592","PERIAPSIS":"545.831","ECCENTRICITY":"0.00019980","REV_AT_EPOCH":"8275","OBJECT_NAME":"STARLINK-1378","TIME_SYSTEM":"UTC","NORAD_CAT_ID":"45548","COUNTRY_CODE":"US","FILE":"3161149","RCS_SIZE":"LARGE","CLASSIFICATION_TYPE":"U","GP_ID":"187100243","TLE_LINE2":"2 45548  53.0531 124.2807 0001998  81.2283 278.8932 15.06399483 82759","SITE":"AFETR","INCLINATION":"53.0531","EPHEMERIS_TYPE":"0"},{"REV_AT_EPOCH":"8275","OBJECT_NAME":"STARLINK-1379","TIME_SYSTEM":"UTC","ECCENTRICITY":"0.00016330","PERIAPSIS":"546.089","PERIOD":"95.592","CLASSIFICATION_TYPE":"U","RCS_SIZE":"LARGE","NORAD_CAT_ID":"45549","FILE":"3161149","COUNTRY_CODE":"US","TLE_LINE2":"2 45549  53.0527 124.2625 0001633  87.2971 272.8205 15.06397865 82758","SITE":"AFETR","GP_ID":"187098495","INCLINATION":"53.0527","EPHEMERIS_TYPE":"0","MEAN_MOTION":"15.06397865","LAUNCH_DATE":"2020-04-22","TLE_LINE1":"1 45549U 20025U   21286.90190620  .00001571  00000-0  12437-3 0  9996","MEAN_ANOMALY":"272.8205","APOAPSIS":"548.351","REF_FRAME":"TEME","RA_OF_ASC_NODE":"124.2625","OBJECT_TYPE":"PAYLOAD","MEAN_MOTION_DDOT":"0.0000000000000","BSTAR":"0.00012437000000","MEAN_MOTION_DOT":"0.00001571","EPOCH":"2021-10-13T21:38:44.695680","DECAY_DATE":null,"OBJECT_ID":"2020-025U","SEMIMAJOR_AXIS":"6925.355","CENTER_NAME":"EARTH","ARG_OF_PERICENTER":"87.2971","MEAN_ELEMENT_THEORY":"SGP4","ELEMENT_SET_NO":"999"},{"ECCENTRICITY":"0.00017260","PERIAPSIS":"545.988","PERIOD":"95.592","REV_AT_EPOCH":"8265","TIME_SYSTEM":"UTC","OBJECT_NAME":"STARLINK-1390","NORAD_CAT_ID":"45550","FILE":"3160689","COUNTRY_CODE":"US","CLASSIFICATION_TYPE":"U","RCS_SIZE":"LARGE","GP_ID":"187066104","TLE_LINE2":"2 45550  53.0542 127.1832 0001726  78.9975 281.1208 15.06409845 82650","SITE":"AFETR","INCLINATION":"53.0542","EPHEMERIS_TYPE":"0","LAUNCH_DATE":"2020-04-22","MEAN_ANOMALY":"281.1208","TLE_LINE1":"1 45550U 20025V   21286.25224422 -.00000398  00000-0 -78219-5 0  9994","MEAN_MOTION":"15.06409845","BSTAR":"-0.00000782190000","MEAN_MOTION_DOT":"-0.00000398","EPOCH":"2021-10-13T06:03:13.900608","APOAPSIS":"548.379","REF_FRAME":"TEME","RA_OF_ASC_NODE":"127.1832","OBJECT_TYPE":"PAYLOAD","MEAN_MOTION_DDOT":"0.0000000000000","DECAY_DATE":null,"OBJECT_ID":"2020-025V","ELEMENT_SET_NO":"999","CENTER_NAME":"EARTH","SEMIMAJOR_AXIS":"6925.318","ARG_OF_PERICENTER":"78.9975","MEAN_ELEMENT_THEORY":"SGP4"},{"EPHEMERIS_TYPE":"0","INCLINATION":"53.0551","GP_ID":"187066856","SITE":"AFETR","TLE_LINE2":"2 45551  53.0551 106.2813 0001645  83.7241 276.3936 15.06404834 82970","COUNTRY_CODE":"US","FILE":"3160689","NORAD_CAT_ID":"45551","RCS_SIZE":"LARGE","CLASSIFICATION_TYPE":"U","PERIOD":"95.592","PERIAPSIS":"546.060","ECCENTRICITY":"0.00016450","TIME_SYSTEM":"UTC","OBJECT_NAME":"STARLINK-1294","REV_AT_EPOCH":"8297","ELEMENT_SET_NO":"999","MEAN_ELEMENT_THEORY":"SGP4","ARG_OF_PERICENTER":"83.7241","SEMIMAJOR_AXIS":"6925.334","CENTER_NAME":"EARTH","OBJECT_ID":"2020-025W","DECAY_DATE":null,"EPOCH":"2021-10-13T10:53:51.959904","MEAN_MOTION_DOT":"0.00001401","BSTAR":"0.00011289000000","MEAN_MOTION_DDOT":"0.0000000000000","RA_OF_ASC_NODE":"106.2813","OBJECT_TYPE":"PAYLOAD","REF_FRAME":"TEME","APOAPSIS":"548.338","MEAN_ANOMALY":"276.3936","TLE_LINE1":"1 45551U 20025W   21286.45407361  .00001401  00000-0  11289-3 0  9998","LAUNCH_DATE":"2020-04-22","MEAN_MOTION":"15.06404834"},{"EPHEMERIS_TYPE":"0","INCLINATION":"53.0547","GP_ID":"187099744","SITE":"AFETR","TLE_LINE2":"2 45552  53.0547 101.7336 0002412 137.8229 222.2954 15.24414608 83067","FILE":"3161149","COUNTRY_CODE":"US","NORAD_CAT_ID":"45552","CLASSIFICATION_TYPE":"U","RCS_SIZE":"LARGE","PERIAPSIS":"490.889","ECCENTRICITY":"0.00024120","PERIOD":"94.462","TIME_SYSTEM":"UTC","OBJECT_NAME":"STARLINK-1322","REV_AT_EPOCH":"8306","ELEMENT_SET_NO":"999","SEMIMAJOR_AXIS":"6870.681","CENTER_NAME":"EARTH","ARG_OF_PERICENTER":"137.8229","MEAN_ELEMENT_THEORY":"SGP4","OBJECT_ID":"2020-025X","DECAY_DATE":null,"EPOCH":"2021-10-13T20:24:36.846144","BSTAR":"0.00385120000000","MEAN_MOTION_DOT":"0.00096602","RA_OF_ASC_NODE":"101.7336","OBJECT_TYPE":"PAYLOAD","MEAN_MOTION_DDOT":"0.0000000000000","APOAPSIS":"494.203","REF_FRAME":"TEME","TLE_LINE1":"1 45552U 20025X   21286.85042646  .00096602  00000-0  38512-2 0  9998","MEAN_ANOMALY":"222.2954","LAUNCH_DATE":"2020-04-22","MEAN_MOTION":"15.24414608"},{"MEAN_ELEMENT_THEORY":"SGP4","SEMIMAJOR_AXIS":"6925.563","ARG_OF_PERICENTER":"103.2750","CENTER_NAME":"EARTH","ELEMENT_SET_NO":"999","DECAY_DATE":null,"OBJECT_ID":"2020-025Y","REF_FRAME":"TEME","APOAPSIS":"548.394","MEAN_MOTION_DDOT":"0.0000000000000","RA_OF_ASC_NODE":"105.3328","OBJECT_TYPE":"PAYLOAD","MEAN_MOTION_DOT":"0.00014917","BSTAR":"0.00102010000000","EPOCH":"2021-10-13T15:56:25.998720","MEAN_MOTION":"15.06329983","LAUNCH_DATE":"2020-04-22","MEAN_ANOMALY":"256.8395","TLE_LINE1":"1 45553U 20025Y   21286.66418980  .00014917  00000-0  10201-2 0  9990","INCLINATION":"53.0547","EPHEMERIS_TYPE":"0","TLE_LINE2":"2 45553  53.0547 105.3328 0001394 103.2750 256.8395 15.06329983 81716","SITE":"AFETR","GP_ID":"187098995","RCS_SIZE":"LARGE","CLASSIFICATION_TYPE":"U","NORAD_CAT_ID":"45553","COUNTRY_CODE":"US","FILE":"3161149","REV_AT_EPOCH":"8171","OBJECT_NAME":"STARLINK-1323","TIME_SYSTEM":"UTC","PERIOD":"95.597","ECCENTRICITY":"0.00013940","PERIAPSIS":"546.463"},{"EPOCH":"2021-10-13T20:32:24.445536","MEAN_MOTION_DOT":"-0.00000563","BSTAR":"-0.00001886400000","MEAN_MOTION_DDOT":"0.0000000000000","OBJECT_TYPE":"PAYLOAD","RA_OF_ASC_NODE":"104.4770","REF_FRAME":"TEME","APOAPSIS":"548.477","TLE_LINE1":"1 45554U 20025Z   21286.85583849 -.00000563  00000-0 -18864-4 0  9998","MEAN_ANOMALY":"277.3534","LAUNCH_DATE":"2020-04-22","MEAN_MOTION":"15.06398361","ELEMENT_SET_NO":"999","MEAN_ELEMENT_THEORY":"SGP4","CENTER_NAME":"EARTH","SEMIMAJOR_AXIS":"6925.354","ARG_OF_PERICENTER":"82.7661","OBJECT_ID":"2020-025Z","DECAY_DATE":null,"COUNTRY_CODE":"US","FILE":"3161149","NORAD_CAT_ID":"45554","RCS_SIZE":"LARGE","CLASSIFICATION_TYPE":"U","PERIOD":"95.592","PERIAPSIS":"545.960","ECCENTRICITY":"0.00018170","TIME_SYSTEM":"UTC","OBJECT_NAME":"STARLINK-1325","REV_AT_EPOCH":"8303","EPHEMERIS_TYPE":"0","INCLINATION":"53.0548","GP_ID":"187099245","SITE":"AFETR","TLE_LINE2":"2 45554  53.0548 104.4770 0001817  82.7661 277.3534 15.06398361 83037"},{"TLE_LINE1":"1 45555U 20025AA  21286.75262268  .00001487  00000-0  11867-3 0  9996","MEAN_ANOMALY":"280.4337","LAUNCH_DATE":"2020-04-22","MEAN_MOTION":"15.06405413","EPOCH":"2021-10-13T18:03:46.599552","MEAN_MOTION_DOT":"0.00001487","BSTAR":"0.00011867000000","MEAN_MOTION_DDOT":"0.0000000000000","OBJECT_TYPE":"PAYLOAD","RA_OF_ASC_NODE":"104.9383","REF_FRAME":"TEME","APOAPSIS":"548.320","OBJECT_ID":"2020-025AA","DECAY_DATE":null,"ELEMENT_SET_NO":"999","MEAN_ELEMENT_THEORY":"SGP4","SEMIMAJOR_AXIS":"6925.332","ARG_OF_PERICENTER":"79.6835","CENTER_NAME":"EARTH","PERIOD":"95.592","PERIAPSIS":"546.074","ECCENTRICITY":"0.00016210","OBJECT_NAME":"STARLINK-1327","TIME_SYSTEM":"UTC","REV_AT_EPOCH":"8301","COUNTRY_CODE":"US","FILE":"3161149","NORAD_CAT_ID":"45555","RCS_SIZE":"LARGE","CLASSIFICATION_TYPE":"U","GP_ID":"187099997","SITE":"AFETR","TLE_LINE2":"2 45555  53.0550 104.9383 0001621  79.6835 280.4337 15.06405413 83018","EPHEMERIS_TYPE":"0","INCLINATION":"53.0550"}];
